{"type": "FeatureCollection", "features": [ {"type": "Feature", "properties": {"norad_id": 45358, "name": "COSMOS 2545 (760)", "group": "glo-ops", "lat": 19.38101643330337, "lon": 129.03113814709513, "alt_km": 19128.4818216065, "timestamp": "2025-12-19T16:54:44.522297+00:00", "meta": {"OBJECT_NAME": "COSMOS 2545 (760)", "OBJECT_ID": "2020-018A", "EPOCH": "2025-12-19T00:41:16.420128", "MEAN_MOTION": 2.13102611, "ECCENTRICITY": 0.00115482, "INCLINATION": 64.4657, "RA_OF_ASC_NODE": 318.7488, "ARG_OF_PERICENTER": 249.6698, "MEAN_ANOMALY": 110.1972, "EPHEMERIS_TYPE": 0, "CLASSIFICATION_TYPE": "U", "NORAD_CAT_ID": 45358, "ELEMENT_SET_NO": 999, "REV_AT_EPOCH": 4482, "BSTAR": 0, "MEAN_MOTION_DOT": -6.1e-07, "MEAN_MOTION_DDOT": 0}, "tle": {"line1": "1 45358U 20018A   25353.02866227 -.00000061  00000+0  00000+0 0  9993", "line2": "2 45358  64.4657 318.7488 0011548 249.6698 110.1972  2.13102611 44827"}}, "geometry": {"type": "Point", "coordinates": [129.03113814709513, 19.38101643330337]}}, {"type": "Feature", "properties": {"norad_id": 46805, "name": "COSMOS 2547 (705K)", "group": "glo-ops", "lat": 12.847033737486127, "lon": -155.3070020068408, "alt_km": 19141.924568472525, "timestamp": "2025-12-19T16:54:44.522309+00:00", "meta": {"OBJECT_NAME": "COSMOS 2547 (705K)", "OBJECT_ID": "2020-075A", "EPOCH": "2025-12-17T08:09:16.456320", "MEAN_MOTION": 2.1310013, "ECCENTRICITY": 0.0006169, "INCLINATION": 64.5962, "RA_OF_ASC_NODE": 198.5429, "ARG_OF_PERICENTER": 228.3795, "MEAN_ANOMALY": 131.6499, "EPHEMERIS_TYPE": 0, "CLASSIFICATION_TYPE": "U", "NORAD_CAT_ID": 46805, "ELEMENT_SET_NO": 999, "REV_AT_EPOCH": 4003, "BSTAR": 0, "MEAN_MOTION_DOT": 1.12e-06, "MEAN_MOTION_DDOT": 0}, "tle": {"line1": "1 46805U 20075A   25351.33977380  .00000112  00000+0  00000+0 0  9995", "line2": "2 46805  64.5962 198.5429 0006169 228.3795 131.6499  2.13100130 40034"}}, "geometry": {"type": "Point", "coordinates": [-155.3070020068408, 12.847033737486127]}}, {"type": "Feature", "properties": {"norad_id": 52984, "name": "COSMOS 2557 (706K)", "group": "glo-ops", "lat": -56.32008573012643, "lon": -173.2432841857302, "alt_km": 19106.31177180895, "timestamp": "2025-12-19T16:54:44.522320+00:00", "meta": {"OBJECT_NAME": "COSMOS 2557 (706K)", "OBJECT_ID": "2022-075A", "EPOCH": "2025-12-18T21:54:24.162624", "MEAN_MOTION": 2.1310197, "ECCENTRICITY": 0.00135327, "INCLINATION": 64.4064, "RA_OF_ASC_NODE": 320.8341, "ARG_OF_PERICENTER": 277.9279, "MEAN_ANOMALY": 81.9104, "EPHEMERIS_TYPE": 0, "CLASSIFICATION_TYPE": "U", "NORAD_CAT_ID": 52984, "ELEMENT_SET_NO": 999, "REV_AT_EPOCH": 2687, "BSTAR": 0, "MEAN_MOTION_DOT": -6.2e-07, "MEAN_MOTION_DDOT": 0}, "tle": {"line1": "1 52984U 22075A   25352.91277966 -.00000062  00000+0  00000+0 0  9995", "line2": "2 52984  64.4064 320.8341 0013532 277.9279  81.9104  2.13101970 26872"}}, "geometry": {"type": "Point", "coordinates": [-173.2432841857302, -56.32008573012643]}}, {"type": "Feature", "properties": {"norad_id": 54031, "name": "COSMOS 2559 (707K)", "group": "glo-ops", "lat": 23.431203418614196, "lon": -27.121804341029883, "alt_km": 19156.035086318057, "timestamp": "2025-12-19T16:54:44.522352+00:00", "meta": {"OBJECT_NAME": "COSMOS 2559 (707K)", "OBJECT_ID": "2022-130A", "EPOCH": "2025-12-19T04:49:46.556256", "MEAN_MOTION": 2.13101385, "ECCENTRICITY": 0.00116154, "INCLINATION": 64.3786, "RA_OF_ASC_NODE": 320.9137, "ARG_OF_PERICENTER": 192.0143, "MEAN_ANOMALY": 167.9504, "EPHEMERIS_TYPE": 0, "CLASSIFICATION_TYPE": "U", "NORAD_CAT_ID": 54031, "ELEMENT_SET_NO": 999, "REV_AT_EPOCH": 2485, "BSTAR": 0, "MEAN_MOTION_DOT": -6.1e-07, "MEAN_MOTION_DDOT": 0}, "tle": {"line1": "1 54031U 22130A   25353.20123329 -.00000061  00000+0  00000+0 0  9997", "line2": "2 54031  64.3786 320.9137 0011615 192.0143 167.9504  2.13101385 24853"}}, "geometry": {"type": "Point", "coordinates": [-27.121804341029883, 23.431203418614196]}}, {"type": "Feature", "properties": {"norad_id": 54377, "name": "COSMOS 2564 (761)", "group": "glo-ops", "lat": 30.63934576280623, "lon": 2.4230238320518764, "alt_km": 19114.93907987538, "timestamp": "2025-12-19T16:54:44.522366+00:00", "meta": {"OBJECT_NAME": "COSMOS 2564 (761)", "OBJECT_ID": "2022-161A", "EPOCH": "2025-12-19T01:05:24.764064", "MEAN_MOTION": 2.13102078, "ECCENTRICITY": 0.0008559, "INCLINATION": 64.7386, "RA_OF_ASC_NODE": 198.6894, "ARG_OF_PERICENTER": 204.0173, "MEAN_ANOMALY": 156.0236, "EPHEMERIS_TYPE": 0, "CLASSIFICATION_TYPE": "U", "NORAD_CAT_ID": 54377, "ELEMENT_SET_NO": 999, "REV_AT_EPOCH": 2379, "BSTAR": 0, "MEAN_MOTION_DOT": 1.07e-06, "MEAN_MOTION_DDOT": 0}, "tle": {"line1": "1 54377U 22161A   25353.04542551  .00000107  00000+0  00000+0 0  9998", "line2": "2 54377  64.7386 198.6894 0008559 204.0173 156.0236  2.13102078 23799"}}, "geometry": {"type": "Point", "coordinates": [2.4230238320518764, 30.63934576280623]}}, {"type": "Feature", "properties": {"norad_id": 57517, "name": "COSMOS 2569 (703K)", "group": "glo-ops", "lat": 39.59892878648852, "lon": -123.75782021272043, "alt_km": 19149.254786165944, "timestamp": "2025-12-19T16:54:44.522378+00:00", "meta": {"OBJECT_NAME": "COSMOS 2569 (703K)", "OBJECT_ID": "2023-114A", "EPOCH": "2025-12-18T02:53:08.312640", "MEAN_MOTION": 2.13104042, "ECCENTRICITY": 0.00107503, "INCLINATION": 65.1969, "RA_OF_ASC_NODE": 78.7317, "ARG_OF_PERICENTER": 286.9993, "MEAN_ANOMALY": 72.9048, "EPHEMERIS_TYPE": 0, "CLASSIFICATION_TYPE": "U", "NORAD_CAT_ID": 57517, "ELEMENT_SET_NO": 999, "REV_AT_EPOCH": 1840, "BSTAR": 0, "MEAN_MOTION_DOT": -4.2e-07, "MEAN_MOTION_DDOT": 0}, "tle": {"line1": "1 57517U 23114A   25352.12023510 -.00000042  00000+0  00000+0 0  9992", "line2": "2 57517  65.1969  78.7317 0010750 286.9993  72.9048  2.13104042 18405"}}, "geometry": {"type": "Point", "coordinates": [-123.75782021272043, 39.59892878648852]}}, {"type": "Feature", "properties": {"norad_id": 63130, "name": "COSMOS 2584 (704K)", "group": "glo-ops", "lat": -37.77359301978064, "lon": -79.9006239051424, "alt_km": 19114.985014692156, "timestamp": "2025-12-19T16:54:44.522390+00:00", "meta": {"OBJECT_NAME": "COSMOS 2584 (704K)", "OBJECT_ID": "2025-042A", "EPOCH": "2025-12-18T11:25:35.911776", "MEAN_MOTION": 2.13103072, "ECCENTRICITY": 0.00077091, "INCLINATION": 64.979, "RA_OF_ASC_NODE": 78.9506, "ARG_OF_PERICENTER": 218.5301, "MEAN_ANOMALY": 141.4378, "EPHEMERIS_TYPE": 0, "CLASSIFICATION_TYPE": "U", "NORAD_CAT_ID": 63130, "ELEMENT_SET_NO": 999, "REV_AT_EPOCH": 619, "BSTAR": 0, "MEAN_MOTION_DOT": -3.8e-07, "MEAN_MOTION_DDOT": 0}, "tle": {"line1": "1 63130U 25042A   25352.47611009 -.00000038  00000+0  00000+0 0  9991", "line2": "2 63130  64.9790  78.9506 0007709 218.5301 141.4378  2.13103072  6191"}}, "geometry": {"type": "Point", "coordinates": [-79.9006239051424, -37.77359301978064]}}, {"type": "Feature", "properties": {"norad_id": 65590, "name": "COSMOS 2596 (708K)", "group": "glo-ops", "lat": -17.118788872931297, "lon": -47.14237766915037, "alt_km": 19103.00452507732, "timestamp": "2025-12-19T16:54:44.522401+00:00", "meta": {"OBJECT_NAME": "COSMOS 2596 (708K)", "OBJECT_ID": "2025-206B", "EPOCH": "2025-12-19T05:43:44.942304", "MEAN_MOTION": 2.13100506, "ECCENTRICITY": 0.00140479, "INCLINATION": 64.7409, "RA_OF_ASC_NODE": 321.2489, "ARG_OF_PERICENTER": 306.8291, "MEAN_ANOMALY": 36.6052, "EPHEMERIS_TYPE": 0, "CLASSIFICATION_TYPE": "U", "NORAD_CAT_ID": 65590, "ELEMENT_SET_NO": 999, "REV_AT_EPOCH": 207, "BSTAR": 0, "MEAN_MOTION_DOT": -6e-07, "MEAN_MOTION_DDOT": 0}, "tle": {"line1": "1 65590U 25206B   25353.23871461 -.00000060  00000+0  00000+0 0  9995", "line2": "2 65590  64.7409 321.2489 0014047 306.8291  36.6052  2.13100506  2070"}}, "geometry": {"type": "Point", "coordinates": [-47.14237766915037, -17.118788872931297]}}]}